NORAD_CAT_ID,OBJECT_NAME,OBJECT_TYPE,EPOCH,MEAN_MOTION,ECCENTRICITY,INCLINATION,RA_OF_ASC_NODE,ARG_OF_PERICENTER,MEAN_ANOMALY,BSTAR,MEAN_MOTION_DOT,MEAN_MOTION_DDOT,TLE_LINE0,TLE_LINE1,TLE_LINE2,SEMIMAJOR_AXIS,PERIOD,APOGEE,PERIGEE,DECAYED
53283.0,STARLINK-4175,PAYLOAD,2022-11-30 18:22:11,15.088402,0.0001875,53.2179,148.3302,56.5557,303.5614,2.0857e-05,4.4e-07,0.0,0 STARLINK-4175,1 53283U 22086AT  22334.76540654  .00000044  00000-0  20857-4 0  9994,2 53283  53.2179 148.3302 0001875  56.5557 303.5614 15.08840200 20636,6917.88,95.438,541.0419999999998,538.448,0.0
53283.0,STARLINK-4175,PAYLOAD,2022-11-30 21:32:57,15.08838412,0.0002005,53.2181,147.7366,56.62,303.4983,6.0679e-05,6.78e-06,0.0,0 STARLINK-4175,1 53283U 22086AT  22334.89788669  .00000678  00000-0  60679-4 0  9997,2 53283  53.2181 147.7366 0002005  56.6200 303.4983 15.08838412 20825,6917.885,95.438,541.137,538.363,0.0
53283.0,STARLINK-4175,PAYLOAD,2022-12-01 18:12:57,15.08843166,0.0001865,53.2174,143.8691,55.2547,304.8621,0.00011342,1.518e-05,0.0,0 STARLINK-4175,1 53283U 22086AT  22335.75900343  .00001518  00000-0  11342-3 0  9994,2 53283  53.2174 143.8691 0001865  55.2547 304.8621 15.08843166 20957,6917.871,95.437,541.026,538.446,0.0
53283.0,STARLINK-4175,PAYLOAD,2022-12-01 21:23:44,15.08845058,0.0001887,53.2174,143.2743,55.861,304.2561,0.00012519,1.705e-05,0.0,0 STARLINK-4175,1 53283U 22086AT  22335.89148177  .00001705  00000-0  12519-3 0  9993,2 53283  53.2174 143.2743 0001887  55.8610 304.2561 15.08845058 20803,6917.865,95.437,541.035,538.425,0.0
53283.0,STARLINK-4175,PAYLOAD,2022-12-02 11:42:13,15.08835642,0.0001816,53.2176,140.59799999999998,57.3889,302.7278,1.031e-05,-1.24e-06,0.0,0 STARLINK-4175,1 53283U 22086AT  22336.48765202 -.00000124  00000-0  10310-4 0  9996,2 53283  53.2176 140.5980 0001816  57.3889 302.7278 15.08835642 20890,6917.894,95.438,541.015,538.502,0.0
53283.0,STARLINK-4175,PAYLOAD,2022-12-02 19:39:08,15.08837985,0.0001882,53.2174,139.1117,56.7234,303.3938,2.7859e-05,1.55e-06,0.0,0 STARLINK-4175,1 53283U 22086AT  22336.81885079  .00000155  00000-0  27859-4 0  9997,2 53283  53.2174 139.1117 0001882  56.7234 303.3938 15.08837985 21112,6917.887,95.438,541.053,538.45,0.0
53283.0,STARLINK-4175,PAYLOAD,2022-12-03 11:32:59,15.08844572,0.0001906,53.2176,136.1382,56.2254,303.892,2.6945e-05,1.41e-06,0.0,0 STARLINK-4175,1 53283U 22086AT  22337.48124746  .00000141  00000-0  26945-4 0  9998,2 53283  53.2176 136.1382 0001906  56.2254 303.8920 15.08844572 21216,6917.866,95.437,541.05,538.413,0.0
53283.0,STARLINK-4175,PAYLOAD,2022-12-03 17:54:32,15.08847269,0.0001901,53.2178,134.9488,56.479,303.6383,5.2747e-05,5.52e-06,0.0,0 STARLINK-4175,1 53283U 22086AT  22337.74620448  .00000552  00000-0  52747-4 0  9992,2 53283  53.2178 134.9488 0001901  56.4790 303.6383 15.08847269 21085,6917.858,95.437,541.038,538.408,0.0
53283.0,STARLINK-4175,PAYLOAD,2022-12-04 11:23:46,15.08840897,0.0001916,53.2173,131.6776,57.9112,302.2066,8.8896e-05,1.127e-05,0.0,0 STARLINK-4175,1 53283U 22086AT  22338.47484503  .00001127  00000-0  88896-4 0  9996,2 53283  53.2173 131.6776 0001916  57.9112 302.2066 15.08840897 21368,6917.878000000002,95.437,541.068,538.4169999999998,0.0
53283.0,STARLINK-4175,PAYLOAD,2022-12-04 14:34:32,15.08840858,0.0002864,53.2167,131.0833,346.6203,13.4712,0.00012955,1.774e-05,0.0,0 STARLINK-4175,1 53283U 22086AT  22338.60732478  .00001774  00000-0  12955-3 0  9998,2 53283  53.2167 131.0833 0002864 346.6203  13.4712 15.08840858 21211,6917.878000000002,95.438,541.724,537.761,0.0
53283.0,STARLINK-4175,PAYLOAD,2022-12-04 16:09:48,15.09010942,0.0001257,53.2167,130.7853,30.7626,329.344,0.0026202,0.00041857,0.0,0 STARLINK-4175,1 53283U 22086AT  22338.67348265  .00041857  00000-0  26202-2 0  9997,2 53283  53.2167 130.7853 0001257  30.7626 329.3440 15.09010942 21394,6917.358,95.427,540.092,538.3530000000002,0.0
53283.0,STARLINK-4175,PAYLOAD,2022-12-05 11:14:33,15.08845969,0.0001764999999999,53.2173,127.2177,52.4373,307.6779,9.9707e-05,1.299e-05,0.0,0 STARLINK-4175,1 53283U 22086AT  22339.46844243  .00001299  00000-0  99707-4 0  9990,2 53283  53.2173 127.2177 0001765  52.4373 307.6779 15.08845969 21517,6917.861999999999,95.437,540.948,538.506,0.0
53283.0,STARLINK-4175,PAYLOAD,2022-12-05 17:36:05,15.08851899,0.0001923,53.2176,126.0284,53.9827,306.1343,0.00016485,2.337e-05,0.0,0 STARLINK-4175,1 53283U 22086AT  22339.73339917  .00002337  00000-0  16485-3 0  9992,2 53283  53.2176 126.0284 0001923  53.9827 306.1343 15.08851899 21387,6917.844,95.437,541.039,538.379,0.0
53283.0,STARLINK-4175,PAYLOAD,2022-12-06 12:40:43,15.08836398,0.0001395,53.2174,122.4586,60.4641,299.649,-5.1692e-05,-1.11e-05,0.0,0 STARLINK-4175,1 53283U 22086AT  22340.52828115 -.00001110  00000-0 -51692-4 0  9994,2 53283  53.2174 122.4586 0001395  60.4641 299.6490 15.08836398 21500,6917.891,95.438,540.721,538.7909999999998,0.0
53283.0,STARLINK-4175,PAYLOAD,2022-12-06 19:02:16,15.08835358,0.0001708,53.2172,121.2703,38.1809,321.9304,-3.9659e-05,-9.19e-06,0.0,0 STARLINK-4175,1 53283U 22086AT  22340.79324457 -.00000919  00000-0 -39659-4 0  9998,2 53283  53.2172 121.2703 0001708  38.1809 321.9304 15.08835358 21713,6917.895,95.438,540.941,538.578,0.0
53283.0,STARLINK-4175,PAYLOAD,2022-12-07 12:31:31,15.08827882,0.0001904,53.2183,118.0003,57.4898,302.6278,-0.00012156,-2.222e-05,0.0,0 STARLINK-4175,1 53283U 22086AT  22341.52189586 -.00002222  00000-0 -12156-3 0  9993,2 53283  53.2183 118.0003 0001904  57.4898 302.6278 15.08827882 21654,6917.917,95.438,541.1,538.465,0.0
53283.0,STARLINK-4175,PAYLOAD,2022-12-07 18:53:04,15.08832824,0.0001952,53.2178,116.8108,51.3762,308.7404,2.9867e-06,-2.41e-06,0.0,0 STARLINK-4175,1 53283U 22086AT  22341.78685638 -.00000241  00000-0  29867-5 0  9997,2 53283  53.2178 116.8108 0001952  51.3762 308.7404 15.08832824 21869,6917.901999999999,95.438,541.118,538.4169999999998,0.0
53283.0,STARLINK-4175,PAYLOAD,2022-12-07 20:28:27,15.08834819,0.0001917,53.2176,116.5132,50.3367,309.7794,4.2589e-05,3.9e-06,0.0,0 STARLINK-4175,1 53283U 22086AT  22341.85309590  .00000390  00000-0  42589-4 0  9994,2 53283  53.2176 116.5132 0001917  50.3367 309.7794 15.08834819 21704,6917.896,95.438,541.087,538.435,0.0
53283.0,STARLINK-4175,PAYLOAD,2022-12-08 12:22:18,15.08846225,0.0001871,53.2175,113.5397,46.6115,313.5033,0.00051391,7.902e-05,0.0,0 STARLINK-4175,1 53283U 22086AT  22342.51549596  .00007902  00000-0  51391-3 0  9996,2 53283  53.2175 113.5397 0001871  46.6115 313.5033 15.08846225 21973,6917.861,95.437,541.021,538.432,0.0
53283.0,STARLINK-4175,PAYLOAD,2022-12-08 18:43:51,15.08842049,0.0001925,53.2174,112.3499,44.2398,315.8748,0.00043601,6.658e-05,0.0,0 STARLINK-4175,1 53283U 22086AT  22342.78045892  .00006658  00000-0  43601-3 0  9997,2 53283  53.2174 112.3499 0001925  44.2398 315.8748 15.08842049 21843,6917.874,95.437,541.071,538.4069999999998,0.0
53283.0,STARLINK-4175,PAYLOAD,2022-12-09 09:02:19,15.08841111,0.0001958,53.2184,109.6757,53.0595,307.0577,0.00027461,4.085e-05,0.0,0 STARLINK-4175,1 53283U 22086AT  22343.37661969  .00004085  00000-0  27461-3 0  9990,2 53283  53.2184 109.6757 0001958  53.0595 307.0577 15.08841111 22105,6917.877,95.437,541.097,538.387,0.0
53283.0,STARLINK-4175,PAYLOAD,2022-12-09 20:10:01,15.08853522,0.0001986,53.2178,107.5924,47.4281,312.6879,0.00035866,5.427e-05,0.0,0 STARLINK-4175,1 53283U 22086AT  22343.84029338  .00005427  00000-0  35866-3 0  9999,2 53283  53.2178 107.5924 0001986  47.4281 312.6879 15.08853522 22006,6917.839,95.437,541.078,538.33,0.0
53283.0,STARLINK-4175,PAYLOAD,2022-12-10 13:39:15,15.08851114,0.0001944,53.2182,104.3216,50.8238,309.2926,0.00015802,2.228e-05,0.0,0 STARLINK-4175,1 53283U 22086AT  22344.56892999  .00002228  00000-0  15802-3 0  9994,2 53283  53.2182 104.3216 0001944  50.8238 309.2926 15.08851114 22284,6917.846,95.437,541.056,538.367,0.0
53283.0,STARLINK-4175,PAYLOAD,2022-12-10 15:14:38,15.08848561,0.0001966,53.218,104.0252,46.932,313.1837,6.7344e-05,7.84e-06,0.0,0 STARLINK-4175,1 53283U 22086AT  22344.63517032  .00000784  00000-0  67344-4 0  9998,2 53283  53.2180 104.0252 0001966  46.9320 313.1837 15.08848561 22299,6917.854,95.437,541.0790000000002,538.359,0.0
53283.0,STARLINK-4175,PAYLOAD,2022-12-11 13:30:01,15.08863828,0.0002294,53.2165,99.8597,37.2391,322.876,0.00033151,4.995e-05,0.0,0 STARLINK-4175,1 53283U 22086AT  22345.56252109  .00004995  00000-0  33151-3 0  9998,2 53283  53.2165  99.8597 0002294  37.2391 322.8760 15.08863828 22432,6917.808000000001,95.436,541.26,538.086,0.0
53283.0,STARLINK-4175,PAYLOAD,2022-12-11 18:16:10,15.08868295,0.0001959,53.2179,98.9705,43.124,316.9906,0.00028608,4.271e-05,0.0,0 STARLINK-4175,1 53283U 22086AT  22345.76123506  .00004271  00000-0  28608-3 0  9996,2 53283  53.2179  98.9705 0001959  43.1240 316.9906 15.08868295 22297,6917.794,95.436,541.014,538.304,0.0
53283.0,STARLINK-4175,PAYLOAD,2022-12-12 11:45:25,15.08847719,0.000158,53.2197,95.6983,49.5067,310.6063,-2.4935e-05,-6.85e-06,0.0,0 STARLINK-4175,1 53283U 22086AT  22346.48988113 -.00000685  00000-0 -24935-4 0  9996,2 53283  53.2197  95.6983 0001580  49.5067 310.6063 15.08847719 22402,6917.857,95.437,540.815,538.629,0.0
53283.0,STARLINK-4175,PAYLOAD,2022-12-12 18:06:58,15.08838457,0.0001592,53.2197,94.5091,42.1615,317.95,-0.00012099,-2.213e-05,0.0,0 STARLINK-4175,1 53283U 22086AT  22346.75484456 -.00002213  00000-0 -12099-3 0  9993,2 53283  53.2197  94.5091 0001592  42.1615 317.9500 15.08838457 22619,6917.885,95.438,540.851,538.649,0.0
53283.0,STARLINK-4175,PAYLOAD,2022-12-13 06:50:04,15.0884021,0.0001771,53.2212,92.1317,43.8481,316.2652,8.873e-05,1.124e-05,0.0,0 STARLINK-4175,1 53283U 22086AT  22347.28476891  .00001124  00000-0  88730-4 0  9990,2 53283  53.2212  92.1317 0001771  43.8481 316.2652 15.08840210 22520,6917.88,95.438,540.97,538.52,0.0
